{"type": "FeatureCollection", "features": [{"type": "Feature", "properties": {"norad_id": 25590, "name": "COSMOS 2361", "group": "musson", "lat": -55.12237430577487, "lon": -32.569525089910506, "alt_km": 985.1872608901722, "timestamp": "2025-12-21T09:37:22.924377+00:00", "meta": {"OBJECT_NAME": "COSMOS 2361", "OBJECT_ID": "1998-076A", "EPOCH": "2025-12-21T01:28:32.841408", "MEAN_MOTION": 13.73218455, "ECCENTRICITY": 0.0030182, "INCLINATION": 82.9341, "RA_OF_ASC_NODE": 337.9311, "ARG_OF_PERICENTER": 241.479, "MEAN_ANOMALY": 185.2761, "EPHEMERIS_TYPE": 0, "CLASSIFICATION_TYPE": "U", "NORAD_CAT_ID": 25590, "ELEMENT_SET_NO": 999, "REV_AT_EPOCH": 35225, "BSTAR": 3.7398e-05, "MEAN_MOTION_DOT": 5e-07, "MEAN_MOTION_DDOT": 0}, "tle": {"line1": "1 25590U 98076A   25355.06149122  .00000050  00000+0  37398-4 0  9994", "line2": "2 25590  82.9341 337.9311 0030182 241.4790 185.2761 13.73218455352254"}}, "geometry": {"type": "Point", "coordinates": [-32.569525089910506, -55.12237430577487]}}, {"type": "Feature", "properties": {"norad_id": 26818, "name": "COSMOS 2378", "group": "musson", "lat": 44.64183999800029, "lon": 0.3451962402951242, "alt_km": 998.1224587787901, "timestamp": "2025-12-21T09:37:22.924398+00:00", "meta": {"OBJECT_NAME": "COSMOS 2378", "OBJECT_ID": "2001-023A", "EPOCH": "2025-12-21T02:44:41.103168", "MEAN_MOTION": 13.74142635, "ECCENTRICITY": 0.0032917, "INCLINATION": 82.9269, "RA_OF_ASC_NODE": 353.5147, "ARG_OF_PERICENTER": 181.3472, "MEAN_ANOMALY": 247.1085, "EPHEMERIS_TYPE": 0, "CLASSIFICATION_TYPE": "U", "NORAD_CAT_ID": 26818, "ELEMENT_SET_NO": 999, "REV_AT_EPOCH": 23038, "BSTAR": 2.2571e-05, "MEAN_MOTION_DOT": 3.7e-07, "MEAN_MOTION_DDOT": 0}, "tle": {"line1": "1 26818U 01023A   25355.11436462  .00000037  00000+0  22571-4 0  9998", "line2": "2 26818  82.9269 353.5147 0032917 181.3472 247.1085 13.74142635230388"}}, "geometry": {"type": "Point", "coordinates": [0.3451962402951242, 44.64183999800029]}}, {"type": "Feature", "properties": {"norad_id": 27436, "name": "COSMOS 2389", "group": "musson", "lat": -74.94401721697166, "lon": -86.8120447306913, "alt_km": 1002.352921443483, "timestamp": "2025-12-21T09:37:22.924412+00:00", "meta": {"OBJECT_NAME": "COSMOS 2389", "OBJECT_ID": "2002-026A", "EPOCH": "2025-12-21T03:03:46.399968", "MEAN_MOTION": 13.75155441, "ECCENTRICITY": 0.0047298, "INCLINATION": 82.9509, "RA_OF_ASC_NODE": 300.7753, "ARG_OF_PERICENTER": 37.8913, "MEAN_ANOMALY": 333.5501, "EPHEMERIS_TYPE": 0, "CLASSIFICATION_TYPE": "U", "NORAD_CAT_ID": 27436, "ELEMENT_SET_NO": 999, "REV_AT_EPOCH": 18264, "BSTAR": 3.241e-05, "MEAN_MOTION_DOT": 4.7e-07, "MEAN_MOTION_DDOT": 0}, "tle": {"line1": "1 27436U 02026A   25355.12762037  .00000047  00000+0  32410-4 0  9994", "line2": "2 27436  82.9509 300.7753 0047298  37.8913 333.5501 13.75155441182640"}}, "geometry": {"type": "Point", "coordinates": [-86.8120447306913, -74.94401721697166]}}, {"type": "Feature", "properties": {"norad_id": 27818, "name": "COSMOS 2398", "group": "musson", "lat": 29.021597568707076, "lon": 82.37838381875925, "alt_km": 978.1776573264051, "timestamp": "2025-12-21T09:37:22.924424+00:00", "meta": {"OBJECT_NAME": "COSMOS 2398", "OBJECT_ID": "2003-023A", "EPOCH": "2025-12-21T04:10:11.059104", "MEAN_MOTION": 13.72386519, "ECCENTRICITY": 0.0032717, "INCLINATION": 82.9484, "RA_OF_ASC_NODE": 266.4834, "ARG_OF_PERICENTER": 89.3246, "MEAN_ANOMALY": 19.0113, "EPHEMERIS_TYPE": 0, "CLASSIFICATION_TYPE": "U", "NORAD_CAT_ID": 27818, "ELEMENT_SET_NO": 999, "REV_AT_EPOCH": 12932, "BSTAR": 5.478e-05, "MEAN_MOTION_DOT": 6.6e-07, "MEAN_MOTION_DDOT": 0}, "tle": {"line1": "1 27818U 03023A   25355.17373911  .00000066  00000+0  54780-4 0  9995", "line2": "2 27818  82.9484 266.4834 0032717  89.3246  19.0113 13.72386519129325"}}, "geometry": {"type": "Point", "coordinates": [82.37838381875925, 29.021597568707076]}}, {"type": "Feature", "properties": {"norad_id": 28380, "name": "COSMOS 2407", "group": "musson", "lat": 69.9423858316671, "lon": 6.697225629613326, "alt_km": 963.7993391667951, "timestamp": "2025-12-21T09:37:22.924436+00:00", "meta": {"OBJECT_NAME": "COSMOS 2407", "OBJECT_ID": "2004-028A", "EPOCH": "2025-12-21T00:54:24.146208", "MEAN_MOTION": 13.76314621, "ECCENTRICITY": 0.0039948, "INCLINATION": 82.9598, "RA_OF_ASC_NODE": 206.7488, "ARG_OF_PERICENTER": 32.2137, "MEAN_ANOMALY": 77.688, "EPHEMERIS_TYPE": 0, "CLASSIFICATION_TYPE": "U", "NORAD_CAT_ID": 28380, "ELEMENT_SET_NO": 999, "REV_AT_EPOCH": 7537, "BSTAR": 5.5827e-05, "MEAN_MOTION_DOT": 7e-07, "MEAN_MOTION_DDOT": 0}, "tle": {"line1": "1 28380U 04028A   25355.03777947  .00000070  00000+0  55827-4 0  9996", "line2": "2 28380  82.9598 206.7488 0039948  32.2137  77.6880 13.76314621 75372"}}, "geometry": {"type": "Point", "coordinates": [6.697225629613326, 69.9423858316671]}}, {"type": "Feature", "properties": {"norad_id": 28521, "name": "COSMOS 2414", "group": "musson", "lat": 12.020975160370474, "lon": 179.62055199289136, "alt_km": 944.0809016209432, "timestamp": "2025-12-21T09:37:22.924447+00:00", "meta": {"OBJECT_NAME": "COSMOS 2414", "OBJECT_ID": "2005-002A", "EPOCH": "2025-12-21T00:54:48.930912", "MEAN_MOTION": 13.87904051, "ECCENTRICITY": 0.004129, "INCLINATION": 82.9488, "RA_OF_ASC_NODE": 178.3848, "ARG_OF_PERICENTER": 116.6292, "MEAN_ANOMALY": 243.9111, "EPHEMERIS_TYPE": 0, "CLASSIFICATION_TYPE": "U", "NORAD_CAT_ID": 28521, "ELEMENT_SET_NO": 999, "REV_AT_EPOCH": 5910, "BSTAR": 4.2018e-05, "MEAN_MOTION_DOT": 6.6e-07, "MEAN_MOTION_DDOT": 0}, "tle": {"line1": "1 28521U 05002A   25355.03806633  .00000066  00000+0  42018-4 0  9994", "line2": "2 28521  82.9488 178.3848 0041290 116.6292 243.9111 13.87904051 59105"}}, "geometry": {"type": "Point", "coordinates": [179.62055199289136, 12.020975160370474]}}, {"type": "Feature", "properties": {"norad_id": 32052, "name": "COSMOS 2429", "group": "musson", "lat": 68.83758536963194, "lon": 138.36602758347672, "alt_km": 977.2855064651094, "timestamp": "2025-12-21T09:37:22.924472+00:00", "meta": {"OBJECT_NAME": "COSMOS 2429", "OBJECT_ID": "2007-038A", "EPOCH": "2025-12-21T00:21:41.705856", "MEAN_MOTION": 13.75150203, "ECCENTRICITY": 0.0038766, "INCLINATION": 82.9806, "RA_OF_ASC_NODE": 337.2079, "ARG_OF_PERICENTER": 15.1606, "MEAN_ANOMALY": 345.0702, "EPHEMERIS_TYPE": 0, "CLASSIFICATION_TYPE": "U", "NORAD_CAT_ID": 32052, "ELEMENT_SET_NO": 999, "REV_AT_EPOCH": 91716, "BSTAR": 3.3578e-05, "MEAN_MOTION_DOT": 4.8e-07, "MEAN_MOTION_DDOT": 0}, "tle": {"line1": "1 32052U 07038A   25355.01506604  .00000048  00000+0  33578-4 0  9993", "line2": "2 32052  82.9806 337.2079 0038766  15.1606 345.0702 13.75150203917169"}}, "geometry": {"type": "Point", "coordinates": [138.36602758347672, 68.83758536963194]}}, {"type": "Feature", "properties": {"norad_id": 35635, "name": "COSMOS 2454", "group": "musson", "lat": 53.164728293368086, "lon": -27.422106641478546, "alt_km": 920.2222846049617, "timestamp": "2025-12-21T09:37:22.924485+00:00", "meta": {"OBJECT_NAME": "COSMOS 2454", "OBJECT_ID": "2009-039A", "EPOCH": "2025-12-21T00:58:54.604992", "MEAN_MOTION": 13.89929585, "ECCENTRICITY": 0.0020201, "INCLINATION": 82.9557, "RA_OF_ASC_NODE": 162.3521, "ARG_OF_PERICENTER": 51.4614, "MEAN_ANOMALY": 73.9313, "EPHEMERIS_TYPE": 0, "CLASSIFICATION_TYPE": "U", "NORAD_CAT_ID": 35635, "ELEMENT_SET_NO": 999, "REV_AT_EPOCH": 83265, "BSTAR": 3.0101e-05, "MEAN_MOTION_DOT": 5.3e-07, "MEAN_MOTION_DDOT": 0}, "tle": {"line1": "1 35635U 09039A   25355.04090978  .00000053  00000+0  30101-4 0  9996", "line2": "2 35635  82.9557 162.3521 0020201  51.4614  73.9313 13.89929585832655"}}, "geometry": {"type": "Point", "coordinates": [-27.422106641478546, 53.164728293368086]}}, {"type": "Feature", "properties": {"norad_id": 36519, "name": "COSMOS 2463", "group": "musson", "lat": -42.38633106281551, "lon": 13.872432825424834, "alt_km": 985.1764039106356, "timestamp": "2025-12-21T09:37:22.924496+00:00", "meta": {"OBJECT_NAME": "COSMOS 2463", "OBJECT_ID": "2010-017A", "EPOCH": "2025-12-21T03:07:08.284800", "MEAN_MOTION": 13.7164984, "ECCENTRICITY": 0.0034748, "INCLINATION": 82.9604, "RA_OF_ASC_NODE": 20.5467, "ARG_OF_PERICENTER": 263.9037, "MEAN_ANOMALY": 155.6361, "EPHEMERIS_TYPE": 0, "CLASSIFICATION_TYPE": "U", "NORAD_CAT_ID": 36519, "ELEMENT_SET_NO": 999, "REV_AT_EPOCH": 78352, "BSTAR": 3.9238e-05, "MEAN_MOTION_DOT": 5e-07, "MEAN_MOTION_DDOT": 0}, "tle": {"line1": "1 36519U 10017A   25355.12995700  .00000050  00000+0  39238-4 0  9999", "line2": "2 36519  82.9604  20.5467 0034748 263.9037 155.6361 13.71649840783520"}}, "geometry": {"type": "Point", "coordinates": [13.872432825424834, -42.38633106281551]}}]}